NORAD_CAT_ID,OBJECT_NAME,OBJECT_TYPE,EPOCH,MEAN_MOTION,ECCENTRICITY,INCLINATION,RA_OF_ASC_NODE,ARG_OF_PERICENTER,MEAN_ANOMALY,BSTAR,MEAN_MOTION_DOT,MEAN_MOTION_DDOT,TLE_LINE0,TLE_LINE1,TLE_LINE2,SEMIMAJOR_AXIS,PERIOD,APOGEE,PERIGEE,DECAYED
55942.0,STARLINK-5917,PAYLOAD,2023-12-19 19:40:58,14.98328144,0.0002374,69.999,168.789,263.4871,96.6018,-5.0067e-05,-6.9e-06,0.0,0 STARLINK-5917,1 55942U 23037AE  23353.82011601 -.00000690  00000-0 -50067-4 0  9994,2 55942  69.9990 168.7890 0002374 263.4871  96.6018 14.98328144 42869,6950.199,96.107,573.714,570.414,0.0
55942.0,STARLINK-5917,PAYLOAD,2023-12-20 13:18:26,14.98328368,0.0002378,69.9994,166.9383,259.6153,100.4738,-2.6625e-05,-4.11e-06,0.0,0 STARLINK-5917,1 55942U 23037AE  23354.55447541 -.00000411  00000-0 -26625-4 0  9995,2 55942  69.9994 166.9383 0002378 259.6153 100.4738 14.98328368 42630,6950.198,96.107,573.716,570.41,0.0
55942.0,STARLINK-5917,PAYLOAD,2023-12-20 19:42:59,14.98327277,0.0002395,69.9995,166.2655,259.2136,100.8754,-3.7688e-05,-5.43e-06,0.0,0 STARLINK-5917,1 55942U 23037AE  23354.82151674 -.00000543  00000-0 -37688-4 0  9991,2 55942  69.9995 166.2655 0002395 259.2136 100.8754 14.98327277 43015,6950.201,96.107,573.731,570.402,0.0
55942.0,STARLINK-5917,PAYLOAD,2023-12-20 21:19:07,14.98327533,0.000241,69.9995,166.097,260.959,99.1296,-3.4983e-05,-5.1e-06,0.0,0 STARLINK-5917,1 55942U 23037AE  23354.88827667 -.00000510  00000-0 -34983-4 0  9998,2 55942  69.9995 166.0970 0002410 260.9590  99.1296 14.98327533 42682,6950.201,96.107,573.741,570.391,0.0
55942.0,STARLINK-5917,PAYLOAD,2023-12-21 14:56:35,14.98331154,0.0002587,69.9991,164.245,266.7046,93.3817,4.2854e-05,4.18e-06,0.0,0 STARLINK-5917,1 55942U 23037AE  23355.62263231  .00000418  00000-0  42854-4 0  9993,2 55942  69.9991 164.2450 0002587 266.7046  93.3817 14.98331154 42797,6950.189,96.107,573.852,570.256,0.0
55942.0,STARLINK-5917,PAYLOAD,2023-12-21 21:21:07,14.98332651,0.0002565,69.9993,163.5721,266.7557,93.3309,5.7778e-05,5.97e-06,0.0,0 STARLINK-5917,1 55942U 23037AE  23355.88967067  .00000597  00000-0  57778-4 0  9998,2 55942  69.9993 163.5721 0002565 266.7557  93.3309 14.98332651 42839,6950.185,96.107,573.832,570.267,0.0
55942.0,STARLINK-5917,PAYLOAD,2023-12-22 14:58:36,14.98333292,0.0002592,69.9994,161.7205,267.1531,92.9331,5.6475e-05,5.81e-06,0.0,0 STARLINK-5917,1 55942U 23037AE  23356.62402898  .00000581  00000-0  56475-4 0  9993,2 55942  69.9994 161.7205 0002592 267.1531  92.9331 14.98333292 42948,6950.183,96.107,573.849,570.246,0.0
55942.0,STARLINK-5917,PAYLOAD,2023-12-22 21:23:08,14.98333898,0.000259,69.9994,161.0472,267.2798,92.8064,5.8091e-05,6e-06,0.0,0 STARLINK-5917,1 55942U 23037AE  23356.89106784  .00000600  00000-0  58091-4 0  9995,2 55942  69.9994 161.0472 0002590 267.2798  92.8064 14.98333898 42989,6950.181,96.107,573.846,570.246,0.0
55942.0,STARLINK-5917,PAYLOAD,2023-12-23 13:24:29,14.98330488,0.0002427,69.9999,159.3641,265.9404,94.1478,-4.0247e-05,-5.73e-06,0.0,0 STARLINK-5917,1 55942U 23037AE  23357.55867173 -.00000573  00000-0 -40247-4 0  9990,2 55942  69.9999 159.3641 0002427 265.9404  94.1478 14.98330488 43088,6950.191,96.107,573.743,570.37,0.0
55942.0,STARLINK-5917,PAYLOAD,2023-12-23 19:49:01,14.98329053,0.0002462,69.9999,158.6909,265.903,94.1847,-5.5509e-05,-7.55e-06,0.0,0 STARLINK-5917,1 55942U 23037AE  23357.82571289 -.00000755  00000-0 -55509-4 0  9999,2 55942  69.9999 158.6909 0002462 265.9030  94.1847 14.98329053 43469,6950.196,96.107,573.772,570.35,0.0
55942.0,STARLINK-5917,PAYLOAD,2023-12-23 21:25:09,14.98328989,0.0002472,69.9998,158.5225,267.0282,93.0594,-5.6112e-05,-7.62e-06,0.0,0 STARLINK-5917,1 55942U 23037AE  23357.89247299 -.00000762  00000-0 -56112-4 0  9996,2 55942  69.9998 158.5225 0002472 267.0282  93.0594 14.98328989 43139,6950.196,96.107,573.779,570.343,0.0
55942.0,STARLINK-5917,PAYLOAD,2023-12-24 13:26:29,14.9833341,0.0002576,69.9997,156.8393,266.0203,94.0662,-2.3956e-05,-3.79e-06,0.0,0 STARLINK-5917,1 55942U 23037AE  23358.56006787 -.00000379  00000-0 -23956-4 0  9990,2 55942  69.9997 156.8393 0002576 266.0203  94.0662 14.98333410 43235,6950.182,96.107,573.838,570.257,0.0
55942.0,STARLINK-5917,PAYLOAD,2023-12-24 19:51:01,14.9833436,0.0002556,69.9997,156.1661,266.1157,93.971,-8.8119e-06,-1.98e-06,0.0,0 STARLINK-5917,1 55942U 23037AE  23358.82710622 -.00000198  00000-0 -88119-5 0  9991,2 55942  69.9997 156.1661 0002556 266.1157  93.9710 14.98334360 43612,6950.179,96.107,573.821,570.268,0.0
55942.0,STARLINK-5917,PAYLOAD,2023-12-24 21:27:09,14.98335868,0.0002538,69.9998,155.9974,262.3689,97.7181,1.1401e-05,4.3e-07,0.0,0 STARLINK-5917,1 55942U 23037AE  23358.89386433  .00000043  00000-0  11401-4 0  9993,2 55942  69.9998 155.9974 0002538 262.3689  97.7181 14.98335868 43286,6950.175,96.107,573.804,570.276,0.0
55942.0,STARLINK-5917,PAYLOAD,2023-12-25 13:28:30,14.98327119,0.0002539,69.9998,154.3139,257.786,102.3015,8.4506e-06,8e-08,0.0,0 STARLINK-5917,1 55942U 23037AE  23359.56146916  .00000008  00000-0  84506-5 0  9996,2 55942  69.9998 154.3139 0002539 257.7860 102.3015 14.98327119 43382,6950.202,96.107,573.831,570.302,0.0
55942.0,STARLINK-5917,PAYLOAD,2023-12-25 19:53:03,14.98327215,0.0002546,70.0,153.6409,258.3053,101.782,8.498e-06,8e-08,0.0,0 STARLINK-5917,1 55942U 23037AE  23359.82850951  .00000008  00000-0  84980-5 0  9992,2 55942  70.0000 153.6409 0002546 258.3053 101.7820 14.98327215 43766,6950.202,96.107,573.836,570.297,0.0
55942.0,STARLINK-5917,PAYLOAD,2023-12-26 13:30:31,14.98328421,0.000252,70.0005,151.7905,247.2369,112.8524,-3.781e-05,-5.44e-06,0.0,0 STARLINK-5917,1 55942U 23037AE  23360.56287031 -.00000544  00000-0 -37810-4 0  9994,2 55942  70.0005 151.7905 0002520 247.2369 112.8524 14.98328421 43539,6950.198,96.107,573.814,570.311,0.0
55942.0,STARLINK-5917,PAYLOAD,2023-12-26 19:55:04,14.98327664,0.0002589,70.0003,151.1179,256.7081,103.3789,-4.4921e-05,-6.29e-06,0.0,0 STARLINK-5917,1 55942U 23037AE  23360.82991172 -.00000629  00000-0 -44921-4 0  9996,2 55942  70.0003 151.1179 0002589 256.7081 103.3789 14.98327664 43913,6950.2,96.107,573.865,570.266,0.0
55942.0,STARLINK-5917,PAYLOAD,2023-12-27 13:32:32,14.98329738,0.0002894,69.9996,149.2647,268.6929,91.3899,2.0372e-05,1.5e-06,0.0,0 STARLINK-5917,1 55942U 23037AE  23361.56426872  .00000150  00000-0  20372-4 0  9999,2 55942  69.9996 149.2647 0002894 268.6929  91.3899 14.98329738 43687,6950.194,96.107,574.07,570.047,0.0
55942.0,STARLINK-5917,PAYLOAD,2023-12-27 19:57:04,14.98332135,0.0002699,69.9998,148.5908,269.9425,90.1424,4.5554e-05,4.51e-06,0.0,0 STARLINK-5917,1 55942U 23037AE  23361.83130660  .00000451  00000-0  45554-4 0  9999,2 55942  69.9998 148.5908 0002699 269.9425  90.1424 14.98332135 44068,6950.186,96.107,573.927,570.175,0.0
55942.0,STARLINK-5917,PAYLOAD,2023-12-28 13:34:34,14.98325735,0.0002527,69.9998,146.7388,260.4592,99.6281,-9.3858e-06,-2.05e-06,0.0,0 STARLINK-5917,1 55942U 23037AE  23362.56567283 -.00000205  00000-0 -93858-5 0  9995,2 55942  69.9998 146.7388 0002527 260.4592  99.6281 14.98325735 43838,6950.206,96.107,573.827,570.315,0.0
55942.0,STARLINK-5917,PAYLOAD,2023-12-28 19:59:06,14.98330871,0.0002602,69.9998,146.0658,261.713,98.3734,3.332e-05,3.05e-06,0.0,0 STARLINK-5917,1 55942U 23037AE  23362.83270870  .00000305  00000-0  33320-4 0  9994,2 55942  69.9998 146.0658 0002602 261.7130  98.3734 14.98330871 44216,6950.19,96.107,573.864,570.247,0.0
55942.0,STARLINK-5917,PAYLOAD,2023-12-29 12:00:26,14.98400152,0.0002161,69.9996,144.3832,268.7039,91.3872,-0.001132,-0.00013597,0.0,0 STARLINK-5917,1 55942U 23037AE  23363.50030244 -.00013597  00000-0 -11320-2 0  9991,2 55942  69.9996 144.3832 0002161 268.7039  91.3872 14.98400152 44311,6949.976,96.102,573.343,570.339,0.0
55942.0,STARLINK-5917,PAYLOAD,2023-12-29 13:36:34,14.98398496,0.0002172,69.9996,144.2148,268.9909,91.1001,-0.0011145,-0.00013389,0.0,0 STARLINK-5917,1 55942U 23037AE  23363.56706040 -.00013389  00000-0 -11145-2 0  9995,2 55942  69.9996 144.2148 0002172 268.9909  91.1001 14.98398496 43981,6949.981,96.103,573.356,570.337,0.0
55942.0,STARLINK-5917,PAYLOAD,2023-12-29 20:01:05,14.98394161,0.0002194,69.9999,143.5418,269.9717,90.1191,-0.0010252,-0.00012324,0.0,0 STARLINK-5917,1 55942U 23037AE  23363.83409146 -.00012324  00000-0 -10252-2 0  9998,2 55942  69.9999 143.5418 0002194 269.9717  90.1191 14.98394161 44028,6949.994,96.103,573.384,570.335,0.0
55942.0,STARLINK-5917,PAYLOAD,2023-12-30 12:02:27,14.98327234,0.000281,70.0001,141.8587,266.7907,93.2931,1.9239e-05,1.37e-06,0.0,0 STARLINK-5917,1 55942U 23037AE  23364.50170848  .00000137  00000-0  19239-4 0  9990,2 55942  70.0001 141.8587 0002810 266.7907  93.2931 14.98327234 44465,6950.201,96.107,574.019,570.113,0.0
55942.0,STARLINK-5917,PAYLOAD,2023-12-30 13:38:35,14.98328114,0.0002815,70.0,141.6905,265.63,94.4537,6.5552e-06,-1.5e-07,0.0,0 STARLINK-5917,1 55942U 23037AE  23364.56846830 -.00000015  00000-0  65552-5 0  9993,2 55942  70.0000 141.6905 0002815 265.6300  94.4537 14.98328114 44133,6950.199,96.107,574.02,570.107,0.0
55942.0,STARLINK-5917,PAYLOAD,2023-12-30 18:26:59,14.98328845,0.0002745,69.9996,141.185,260.4413,99.6435,1.377e-05,7.1e-07,0.0,0 STARLINK-5917,1 55942U 23037AE  23364.76874793  .00000071  00000-0  13770-4 0  9999,2 55942  69.9996 141.1850 0002745 260.4413  99.6435 14.98328845 44166,6950.196,96.107,573.969,570.154,0.0
55942.0,STARLINK-5917,PAYLOAD,2023-12-31 12:04:28,14.98329229,0.0002835,70.0,139.334,266.9617,93.1217,-2.3313e-05,-3.71e-06,0.0,0 STARLINK-5917,1 55942U 23037AE  23365.50310848 -.00000371  00000-0 -23313-4 0  9997,2 55942  70.0000 139.3340 0002835 266.9617  93.1217 14.98329229 44619,6950.195,96.107,574.031,570.09,0.0
55942.0,STARLINK-5917,PAYLOAD,2023-12-31 18:29:00,14.98328332,0.0002852,70.0,138.6608,266.9412,93.142,-3.1611e-05,-4.7e-06,0.0,0 STARLINK-5917,1 55942U 23037AE  23365.77014939 -.00000470  00000-0 -31611-4 0  9998,2 55942  70.0000 138.6608 0002852 266.9412  93.1420 14.98328332 44317,6950.198,96.107,574.045,570.081,0.0
